{
  "type": "FeatureCollection",
  "features": [
    {
      "type": "Feature",
      "properties": {
        "osm_way_id": 173104973,
        "highway": "service"
      },
      "geometry": {
        "type": "LineString",
        "coordinates": [
          [
            127.1461612,
            36.9090913
          ],
          [
            127.1458346,
            36.9103462
          ],
          [
            127.1458134,
            36.9104274
          ],
          [
            127.1457193,
            36.9107132
          ],
          [
            127.1456718,
            36.9108183
          ],
          [
            127.1455792,
            36.910895
          ],
          [
            127.1454833,
            36.9109561
          ],
          [
            127.1453653,
            36.9109931
          ],
          [
            127.145248,
            36.9110001
          ],
          [
            127.1451319,
            36.9109868
          ],
          [
            127.1446235,
            36.9109112
          ],
          [
            127.1445184,
            36.9108956
          ],
          [
            127.1438653,
            36.9107985
          ],
          [
            127.1431255,
            36.9108125
          ]
        ]
      }
    },
    {
      "type": "Feature",
      "properties": {
        "osm_way_id": 173104975,
        "highway": "service"
      },
      "geometry": {
        "type": "LineString",
        "coordinates": [
          [
            127.1438653,
            36.9107985
          ],
          [
            127.1439677,
            36.9103372
          ],
          [
            127.1440254,
            36.9100776
          ],
          [
            127.1441296,
            36.9096088
          ],
          [
            127.1441364,
            36.9095781
          ],
          [
            127.1443037,
            36.9088247
          ],
          [
            127.1443978,
            36.9084013
          ],
          [
            127.1445032,
            36.9079268
          ]
        ]
      }
    },
    {
      "type": "Feature",
      "properties": {
        "osm_way_id": 173104976,
        "highway": "service",
        "maxspeed": "20",
        "oneway": "yes"
      },
      "geometry": {
        "type": "LineString",
        "coordinates": [
          [
            127.1435094,
            36.9116664
          ],
          [
            127.1433417,
            36.911465
          ],
          [
            127.1430175,
            36.9108122
          ],
          [
            127.1429775,
            36.9107248
          ],
          [
            127.14289,
            36.9105348
          ]
        ]
      }
    },
    {
      "type": "Feature",
      "properties": {
        "osm_way_id": 173104978,
        "highway": "service",
        "maxspeed": "20",
        "oneway": "yes"
      },
      "geometry": {
        "type": "LineString",
        "coordinates": [
          [
            127.1427328,
            36.908708
          ],
          [
            127.1427026,
            36.9086845
          ],
          [
            127.1426822,
            36.908655
          ],
          [
            127.1426732,
            36.908622
          ],
          [
            127.142676,
            36.9085905
          ],
          [
            127.1426985,
            36.9085482
          ],
          [
            127.1427377,
            36.9085174
          ],
          [
            127.1427884,
            36.9085004
          ],
          [
            127.1428434,
            36.9084997
          ],
          [
            127.1428947,
            36.9085154
          ],
          [
            127.142935,
            36.9085452
          ],
          [
            127.1429587,
            36.9085849
          ],
          [
            127.1429621,
            36.9086288
          ],
          [
            127.1429525,
            36.908658
          ],
          [
            127.1429338,
            36.9086843
          ],
          [
            127.1429072,
            36.9087058
          ],
          [
            127.1428745,
            36.9087211
          ],
          [
            127.1428381,
            36.9087291
          ],
          [
            127.1428011,
            36.9087294
          ],
          [
            127.1427652,
            36.9087222
          ],
          [
            127.1427328,
            36.908708
          ]
        ]
      }
    },
    {
      "type": "Feature",
      "properties": {
        "osm_way_id": 173104986,
        "highway": "service"
      },
      "geometry": {
        "type": "LineString",
        "coordinates": [
          [
            127.1429621,
            36.9086288
          ],
          [
            127.1437758,
            36.908749
          ],
          [
            127.1443037,
            36.9088247
          ],
          [
            127.1454009,
            36.9089871
          ],
          [
            127.1456504,
            36.9090241
          ],
          [
            127.1460937,
            36.9090897
          ],
          [
            127.1461612,
            36.9090913
          ],
          [
            127.1462768,
            36.9090896
          ],
          [
            127.1463698,
            36.9090819
          ],
          [
            127.1464474,
            36.9090703
          ],
          [
            127.1465998,
            36.9090563
          ]
        ]
      }
    },
    {
      "type": "Feature",
      "properties": {
        "osm_way_id": 185632255,
        "highway": "service",
        "service": "driveway"
      },
      "geometry": {
        "type": "LineString",
        "coordinates": [
          [
            127.1468305,
            36.9109248
          ],
          [
            127.146795,
            36.9107904
          ],
          [
            127.1468191,
            36.9107132
          ],
          [
            127.1469103,
            36.9106339
          ],
          [
            127.1470774,
            36.910531
          ],
          [
            127.1472134,
            36.9104473
          ],
          [
            127.1472992,
            36.9103658
          ],
          [
            127.1474789,
            36.9100956
          ],
          [
            127.1477348,
            36.9096602
          ],
          [
            127.1479113,
            36.9092846
          ],
          [
            127.1479349,
            36.9091937
          ],
          [
            127.1479515,
            36.9090778
          ],
          [
            127.1479331,
            36.9089704
          ],
          [
            127.1472909,
            36.9083192
          ],
          [
            127.1472155,
            36.908248
          ],
          [
            127.1471911,
            36.9082249
          ],
          [
            127.1469543,
            36.908071
          ],
          [
            127.1467665,
            36.907938
          ],
          [
            127.1467141,
            36.9079091
          ],
          [
            127.1465158,
            36.9077751
          ],
          [
            127.146209,
            36.908041
          ],
          [
            127.1461178,
            36.9080742
          ],
          [
            127.1460347,
            36.9080517
          ],
          [
            127.1457772,
            36.9078544
          ]
        ]
      }
    },
    {
      "type": "Feature",
      "properties": {
        "osm_way_id": 185632256,
        "highway": "service",
        "maxspeed": "20",
        "oneway": "yes"
      },
      "geometry": {
        "type": "LineString",
        "coordinates": [
          [
            127.1428381,
            36.9087291
          ],
          [
            127.1428319,
            36.9087632
          ],
          [
            127.1427944,
            36.9089927
          ],
          [
            127.1427595,
            36.9092822
          ],
          [
            127.1427568,
            36.9094409
          ],
          [
            127.1427568,
            36.9095181
          ],
          [
            127.1427588,
            36.9095928
          ],
          [
            127.1427622,
            36.9097176
          ],
          [
            127.1427837,
            36.9099084
          ],
          [
            127.1428293,
            36.9101229
          ],
          [
            127.1428829,
            36.9102859
          ],
          [
            127.1429339,
            36.9104081
          ],
          [
            127.1429834,
            36.9105164
          ]
        ]
      }
    },
    {
      "type": "Feature",
      "properties": {
        "osm_way_id": 185632257,
        "highway": "service"
      },
      "geometry": {
        "type": "LineString",
        "coordinates": [
          [
            127.1418311,
            36.9084657
          ],
          [
            127.1418536,
            36.9083646
          ],
          [
            127.1419954,
            36.9077291
          ],
          [
            127.142042,
            36.9075165
          ]
        ]
      }
    },
    {
      "type": "Feature",
      "properties": {
        "osm_way_id": 185632258,
        "highway": "service"
      },
      "geometry": {
        "type": "LineString",
        "coordinates": [
          [
            127.1440104,
            36.907693
          ],
          [
            127.1421965,
            36.9074249
          ]
        ]
      }
    },
    {
      "type": "Feature",
      "properties": {
        "osm_way_id": 185632261,
        "highway": "service"
      },
      "geometry": {
        "type": "LineString",
        "coordinates": [
          [
            127.142676,
            36.9085905
          ],
          [
            127.1418311,
            36.9084657
          ]
        ]
      }
    },
    {
      "type": "Feature",
      "properties": {
        "osm_way_id": 185632263,
        "highway": "service",
        "service": "parking_aisle"
      },
      "geometry": {
        "type": "LineString",
        "coordinates": [
          [
            127.1442207,
            36.910107
          ],
          [
            127.1442918,
            36.9097391
          ],
          [
            127.1443022,
            36.9097254
          ],
          [
            127.144315,
            36.909717
          ],
          [
            127.1443353,
            36.9097114
          ],
          [
            127.1443525,
            36.9097118
          ],
          [
            127.1453077,
            36.9098544
          ],
          [
            127.1452182,
            36.9102575
          ]
        ]
      }
    },
    {
      "type": "Feature",
      "properties": {
        "osm_way_id": 185632266,
        "highway": "service",
        "service": "parking_aisle"
      },
      "geometry": {
        "type": "LineString",
        "coordinates": [
          [
            127.1441018,
            36.9072817
          ],
          [
            127.1422638,
            36.9070101
          ],
          [
            127.1422115,
            36.9070335
          ],
          [
            127.1421672,
            36.9070624
          ],
          [
            127.1421377,
            36.9071353
          ],
          [
            127.1421014,
            36.9073109
          ]
        ]
      }
    },
    {
      "type": "Feature",
      "properties": {
        "osm_way_id": 185632268,
        "highway": "service"
      },
      "geometry": {
        "type": "LineString",
        "coordinates": [
          [
            127.1440254,
            36.9100776
          ],
          [
            127.1442207,
            36.910107
          ],
          [
            127.1452182,
            36.9102575
          ],
          [
            127.1457226,
            36.9103295
          ],
          [
            127.1458346,
            36.9103462
          ],
          [
            127.1470774,
            36.910531
          ]
        ]
      }
    },
    {
      "type": "Feature",
      "properties": {
        "osm_way_id": 185632269,
        "highway": "service",
        "oneway": "yes"
      },
      "geometry": {
        "type": "LineString",
        "coordinates": [
          [
            127.142042,
            36.9075165
          ],
          [
            127.1419951,
            36.9075024
          ],
          [
            127.1419635,
            36.9074804
          ],
          [
            127.1419421,
            36.9074516
          ],
          [
            127.141933,
            36.9074189
          ],
          [
            127.1419372,
            36.9073855
          ],
          [
            127.1419542,
            36.9073549
          ],
          [
            127.1419823,
            36.9073301
          ],
          [
            127.1420188,
            36.9073135
          ],
          [
            127.1420598,
            36.9073069
          ],
          [
            127.1421014,
            36.9073109
          ],
          [
            127.1421431,
            36.9073271
          ],
          [
            127.1421752,
            36.9073538
          ],
          [
            127.1421938,
            36.9073878
          ],
          [
            127.1421965,
            36.9074249
          ],
          [
            127.1421841,
            36.907459
          ],
          [
            127.142158,
            36.907488
          ],
          [
            127.1421213,
            36.9075084
          ],
          [
            127.1420782,
            36.9075179
          ],
          [
            127.142042,
            36.9075165
          ]
        ]
      }
    },
    {
      "type": "Feature",
      "properties": {
        "osm_way_id": 185632983,
        "highway": "service",
        "service": "parking_aisle"
      },
      "geometry": {
        "type": "LineString",
        "coordinates": [
          [
            127.1411704,
            36.910814
          ],
          [
            127.1418034,
            36.9109684
          ],
          [
            127.1418957,
            36.9109835
          ],
          [
            127.1419965,
            36.910977
          ],
          [
            127.1421843,
            36.9109084
          ],
          [
            127.1430175,
            36.9108122
          ]
        ]
      }
    },
    {
      "type": "Feature",
      "properties": {
        "osm_way_id": 495071862,
        "footway": "sidewalk",
        "highway": "footway"
      },
      "geometry": {
        "type": "LineString",
        "coordinates": [
          [
            127.1443978,
            36.9084013
          ],
          [
            127.1455041,
            36.9085651
          ],
          [
            127.1454009,
            36.9089871
          ]
        ]
      }
    },
    {
      "type": "Feature",
      "properties": {
        "osm_way_id": 495073753,
        "footway": "sidewalk",
        "highway": "footway"
      },
      "geometry": {
        "type": "LineString",
        "coordinates": [
          [
            127.1464474,
            36.9090703
          ],
          [
            127.146695,
            36.9087729
          ],
          [
            127.1469679,
            36.9084166
          ],
          [
            127.1470361,
            36.908316
          ],
          [
            127.1471911,
            36.9082249
          ]
        ]
      }
    },
    {
      "type": "Feature",
      "properties": {
        "osm_way_id": 495073755,
        "footway": "sidewalk",
        "highway": "footway"
      },
      "geometry": {
        "type": "LineString",
        "coordinates": [
          [
            127.1441364,
            36.9095781
          ],
          [
            127.1453595,
            36.9097397
          ],
          [
            127.1453077,
            36.9098544
          ]
        ]
      }
    },
    {
      "type": "Feature",
      "properties": {
        "osm_way_id": 495073757,
        "footway": "sidewalk",
        "highway": "footway"
      },
      "geometry": {
        "type": "LineString",
        "coordinates": [
          [
            127.1456504,
            36.9090241
          ],
          [
            127.1455263,
            36.9095142
          ],
          [
            127.1453595,
            36.9097397
          ]
        ]
      }
    },
    {
      "type": "Feature",
      "properties": {
        "osm_way_id": 495432057,
        "highway": "service",
        "service": "parking_aisle"
      },
      "geometry": {
        "type": "LineString",
        "coordinates": [
          [
            127.1426387,
            36.9097045
          ],
          [
            127.1425201,
            36.9097066
          ],
          [
            127.1424739,
            36.9095113
          ],
          [
            127.1424243,
            36.9093527
          ],
          [
            127.1422055,
            36.9090423
          ],
          [
            127.141962,
            36.9087737
          ],
          [
            127.1418706,
            36.9086883
          ],
          [
            127.1417827,
            36.9086584
          ],
          [
            127.1418311,
            36.9084657
          ]
        ]
      }
    },
    {
      "type": "Feature",
      "properties": {
        "osm_way_id": 495432058,
        "highway": "service",
        "service": "parking_aisle"
      },
      "geometry": {
        "type": "LineString",
        "coordinates": [
          [
            127.1418536,
            36.9083646
          ],
          [
            127.1416872,
            36.9083412
          ],
          [
            127.1417171,
            36.9082065
          ],
          [
            127.1418287,
            36.9077044
          ],
          [
            127.1419954,
            36.9077291
          ]
        ]
      }
    },
    {
      "type": "Feature",
      "properties": {
        "osm_way_id": 495432060,
        "highway": "service",
        "service": "parking_aisle"
      },
      "geometry": {
        "type": "LineString",
        "coordinates": [
          [
            127.1457226,
            36.9103295
          ],
          [
            127.1458223,
            36.9098651
          ]
        ]
      }
    },
    {
      "type": "Feature",
      "properties": {
        "osm_way_id": 495432061,
        "highway": "service",
        "service": "parking_aisle"
      },
      "geometry": {
        "type": "LineString",
        "coordinates": [
          [
            127.1445184,
            36.9108956
          ],
          [
            127.1445229,
            36.9110095
          ]
        ]
      }
    },
    {
      "type": "Feature",
      "properties": {
        "osm_way_id": 495432062,
        "highway": "service",
        "service": "parking_aisle"
      },
      "geometry": {
        "type": "LineString",
        "coordinates": [
          [
            127.1439677,
            36.9103372
          ],
          [
            127.1438601,
            36.9103458
          ],
          [
            127.1437271,
            36.9104097
          ],
          [
            127.1436144,
            36.9104583
          ],
          [
            127.1434839,
            36.9104692
          ],
          [
            127.1433546,
            36.9104631
          ],
          [
            127.1432451,
            36.9104042
          ],
          [
            127.14316,
            36.9103127
          ],
          [
            127.1431353,
            36.9102029
          ],
          [
            127.1431673,
            36.9100789
          ],
          [
            127.1432268,
            36.9098123
          ],
          [
            127.1433853,
            36.9096802
          ],
          [
            127.14359,
            36.9095799
          ],
          [
            127.1437343,
            36.9095522
          ],
          [
            127.1441296,
            36.9096088
          ]
        ]
      }
    },
    {
      "type": "Feature",
      "properties": {
        "osm_way_id": 510509703,
        "highway": "service",
        "service": "parking_aisle"
      },
      "geometry": {
        "type": "LineString",
        "coordinates": [
          [
            127.1424686,
            36.9105596
          ],
          [
            127.14289,
            36.9105348
          ],
          [
            127.1429834,
            36.9105164
          ]
        ]
      }
    },
    {
      "type": "Feature",
      "properties": {
        "osm_way_id": 510509704,
        "highway": "service",
        "maxspeed": "20",
        "oneway": "yes"
      },
      "geometry": {
        "type": "LineString",
        "coordinates": [
          [
            127.14289,
            36.9105348
          ],
          [
            127.1428481,
            36.9104403
          ],
          [
            127.1427515,
            36.9101958
          ],
          [
            127.1426921,
            36.9100049
          ],
          [
            127.1426684,
            36.9099062
          ],
          [
            127.1426387,
            36.9097045
          ],
          [
            127.142637,
            36.9095948
          ],
          [
            127.1426362,
            36.9095438
          ],
          [
            127.1426523,
            36.9092328
          ],
          [
            127.1426844,
            36.908984
          ],
          [
            127.1427328,
            36.908708
          ]
        ]
      }
    },
    {
      "type": "Feature",
      "properties": {
        "osm_way_id": 510509705,
        "highway": "service",
        "maxspeed": "20",
        "oneway": "yes"
      },
      "geometry": {
        "type": "LineString",
        "coordinates": [
          [
            127.1429834,
            36.9105164
          ],
          [
            127.1431255,
            36.9108125
          ],
          [
            127.1432826,
            36.9111309
          ],
          [
            127.1434301,
            36.9114375
          ],
          [
            127.1435094,
            36.9116664
          ]
        ]
      }
    },
    {
      "type": "Feature",
      "properties": {
        "osm_way_id": 730660501,
        "bridge": "yes",
        "highway": "service",
        "layer": "1",
        "service": "parking_aisle"
      },
      "geometry": {
        "type": "LineString",
        "coordinates": [
          [
            127.1445229,
            36.9110095
          ],
          [
            127.1445293,
            36.9111599
          ]
        ]
      }
    },
    {
      "type": "Feature",
      "properties": {
        "osm_way_id": 768046007,
        "highway": "service",
        "oneway": "yes"
      },
      "geometry": {
        "type": "LineString",
        "coordinates": [
          [
            127.1393295,
            36.9065323
          ],
          [
            127.139336,
            36.9066282
          ],
          [
            127.1393543,
            36.9066981
          ],
          [
            127.139584,
            36.9073531
          ],
          [
            127.1397059,
            36.907618
          ],
          [
            127.1398279,
            36.9078017
          ],
          [
            127.1400454,
            36.9080553
          ],
          [
            127.1401592,
            36.908143
          ],
          [
            127.1401958,
            36.9081674
          ],
          [
            127.1402182,
            36.9082097
          ]
        ]
      }
    },
    {
      "type": "Feature",
      "properties": {
        "osm_way_id": 768046008,
        "highway": "service",
        "oneway": "yes"
      },
      "geometry": {
        "type": "LineString",
        "coordinates": [
          [
            127.1402182,
            36.9082097
          ],
          [
            127.1401613,
            36.9082113
          ],
          [
            127.1401172,
            36.9082014
          ],
          [
            127.1400678,
            36.9081772
          ],
          [
            127.1399569,
            36.9080774
          ],
          [
            127.1397791,
            36.9078683
          ],
          [
            127.1396551,
            36.9077172
          ],
          [
            127.1395494,
            36.9075335
          ],
          [
            127.1394742,
            36.9073612
          ],
          [
            127.1393543,
            36.9070069
          ],
          [
            127.139277,
            36.9067923
          ],
          [
            127.139214,
            36.9066981
          ],
          [
            127.1391665,
            36.9066123
          ]
        ]
      }
    },
    {
      "type": "Feature",
      "properties": {
        "osm_way_id": 768046009,
        "highway": "service"
      },
      "geometry": {
        "type": "LineString",
        "coordinates": [
          [
            127.1402182,
            36.9082097
          ],
          [
            127.1403447,
            36.908246
          ],
          [
            127.141665,
            36.9084411
          ],
          [
            127.1418311,
            36.9084657
          ]
        ]
      }
    },
    {
      "type": "Feature",
      "properties": {
        "osm_way_id": 768046015,
        "highway": "service",
        "surface": "concrete"
      },
      "geometry": {
        "type": "LineString",
        "coordinates": [
          [
            127.1414244,
            36.9062743
          ],
          [
            127.1414271,
            36.9063279
          ],
          [
            127.1413466,
            36.9064094
          ],
          [
            127.1409175,
            36.9066046
          ],
          [
            127.1407378,
            36.9067912
          ],
          [
            127.1407217,
            36.9068448
          ],
          [
            127.1407539,
            36.9068856
          ],
          [
            127.1408987,
            36.9069778
          ]
        ]
      }
    },
    {
      "type": "Feature",
      "properties": {
        "osm_way_id": 802001892,
        "highway": "service",
        "service": "parking_aisle"
      },
      "geometry": {
        "type": "LineString",
        "coordinates": [
          [
            127.1416872,
            36.9083412
          ],
          [
            127.141665,
            36.9084411
          ]
        ]
      }
    },
    {
      "type": "Feature",
      "properties": {
        "osm_way_id": 802001893,
        "highway": "service"
      },
      "geometry": {
        "type": "LineString",
        "coordinates": [
          [
            127.1437758,
            36.908749
          ],
          [
            127.1439758,
            36.9078488
          ],
          [
            127.1440104,
            36.907693
          ],
          [
            127.1441018,
            36.9072817
          ]
        ]
      }
    },
    {
      "type": "Feature",
      "properties": {
        "osm_way_id": 802001894,
        "highway": "service",
        "service": "parking_aisle"
      },
      "geometry": {
        "type": "LineString",
        "coordinates": [
          [
            127.1445032,
            36.9079268
          ],
          [
            127.1439758,
            36.9078488
          ]
        ]
      }
    },
    {
      "type": "Feature",
      "properties": {
        "osm_way_id": 1126047996,
        "highway": "service",
        "service": "parking_aisle"
      },
      "geometry": {
        "type": "LineString",
        "coordinates": [
          [
            127.142527,
            36.9117206
          ],
          [
            127.1425182,
            36.9115544
          ],
          [
            127.1425051,
            36.9113072
          ],
          [
            127.1414765,
            36.9113787
          ]
        ]
      }
    },
    {
      "type": "Feature",
      "properties": {
        "osm_way_id": 1126047997,
        "highway": "service",
        "service": "parking_aisle"
      },
      "geometry": {
        "type": "LineString",
        "coordinates": [
          [
            127.1425182,
            36.9115544
          ],
          [
            127.1416249,
            36.9116111
          ]
        ]
      }
    },
    {
      "type": "Feature",
      "properties": {
        "osm_way_id": 1186489477,
        "highway": "service",
        "service": "parking_aisle"
      },
      "geometry": {
        "type": "LineString",
        "coordinates": [
          [
            127.1417827,
            36.9086584
          ],
          [
            127.141586,
            36.9086325
          ]
        ]
      }
    },
    {
      "type": "Feature",
      "properties": {
        "osm_way_id": 1186489478,
        "highway": "service",
        "oneway": "yes",
        "service": "parking_aisle"
      },
      "geometry": {
        "type": "LineString",
        "coordinates": [
          [
            127.141586,
            36.9086325
          ],
          [
            127.141564,
            36.9086905
          ],
          [
            127.1406559,
            36.9085594
          ],
          [
            127.1406284,
            36.908489
          ],
          [
            127.1406537,
            36.90843
          ],
          [
            127.1415838,
            36.9085805
          ],
          [
            127.141586,
            36.9086325
          ]
        ]
      }
    },
    {
      "type": "Feature",
      "properties": {
        "osm_way_id": 1186489480,
        "highway": "service",
        "service": "parking_aisle"
      },
      "geometry": {
        "type": "LineString",
        "coordinates": [
          [
            127.1424686,
            36.9105596
          ],
          [
            127.1423178,
            36.9100406
          ]
        ]
      }
    },
    {
      "type": "Feature",
      "properties": {
        "osm_way_id": 1186489481,
        "highway": "service",
        "service": "parking_aisle"
      },
      "geometry": {
        "type": "LineString",
        "coordinates": [
          [
            127.142139,
            36.909871
          ],
          [
            127.1423692,
            36.9098103
          ],
          [
            127.1424293,
            36.9097096
          ],
          [
            127.1425201,
            36.9097066
          ]
        ]
      }
    },
    {
      "type": "Feature",
      "properties": {
        "osm_way_id": 1186489482,
        "highway": "service",
        "service": "parking_aisle"
      },
      "geometry": {
        "type": "LineString",
        "coordinates": [
          [
            127.142139,
            36.909871
          ],
          [
            127.1419255,
            36.9097069
          ],
          [
            127.1416719,
            36.9095842
          ],
          [
            127.1417384,
            36.9094468
          ],
          [
            127.1418025,
            36.9093147
          ],
          [
            127.1418587,
            36.909188
          ],
          [
            127.1421797,
            36.9093719
          ],
          [
            127.1422742,
            36.9094295
          ]
        ]
      }
    },
    {
      "type": "Feature",
      "properties": {
        "osm_way_id": 1186489483,
        "highway": "service",
        "service": "parking_aisle"
      },
      "geometry": {
        "type": "LineString",
        "coordinates": [
          [
            127.1418587,
            36.909188
          ],
          [
            127.1419088,
            36.9090906
          ],
          [
            127.1421757,
            36.9092467
          ],
          [
            127.1421797,
            36.9093719
          ]
        ]
      }
    },
    {
      "type": "Feature",
      "properties": {
        "osm_way_id": 1186489484,
        "highway": "service",
        "service": "parking_aisle"
      },
      "geometry": {
        "type": "LineString",
        "coordinates": [
          [
            127.1418025,
            36.9093147
          ],
          [
            127.1424293,
            36.9097096
          ]
        ]
      }
    },
    {
      "type": "Feature",
      "properties": {
        "osm_way_id": 1186489485,
        "highway": "service",
        "service": "parking_aisle"
      },
      "geometry": {
        "type": "LineString",
        "coordinates": [
          [
            127.1417384,
            36.9094468
          ],
          [
            127.1423692,
            36.9098103
          ]
        ]
      }
    },
    {
      "type": "Feature",
      "properties": {
        "osm_way_id": 1186489486,
        "highway": "service",
        "service": "parking_aisle"
      },
      "geometry": {
        "type": "LineString",
        "coordinates": [
          [
            127.1416719,
            36.9095842
          ],
          [
            127.1414967,
            36.9095322
          ]
        ]
      }
    },
    {
      "type": "Feature",
      "properties": {
        "osm_way_id": 1186489487,
        "highway": "service",
        "service": "parking_aisle"
      },
      "geometry": {
        "type": "LineString",
        "coordinates": [
          [
            127.1417384,
            36.9094468
          ],
          [
            127.1410709,
            36.9092255
          ],
          [
            127.1404306,
            36.9090133
          ],
          [
            127.1405057,
            36.9088865
          ],
          [
            127.1411386,
            36.9090955
          ],
          [
            127.1418025,
            36.9093147
          ]
        ]
      }
    },
    {
      "type": "Feature",
      "properties": {
        "osm_way_id": 1186489488,
        "highway": "service",
        "service": "parking_aisle"
      },
      "geometry": {
        "type": "LineString",
        "coordinates": [
          [
            127.1405057,
            36.9088865
          ],
          [
            127.1405607,
            36.9088011
          ],
          [
            127.1408394,
            36.9088452
          ],
          [
            127.141203,
            36.9089675
          ],
          [
            127.1418587,
            36.909188
          ]
        ]
      }
    },
    {
      "type": "Feature",
      "properties": {
        "osm_way_id": 1186489489,
        "highway": "service",
        "service": "parking_aisle"
      },
      "geometry": {
        "type": "LineString",
        "coordinates": [
          [
            127.1410709,
            36.9092255
          ],
          [
            127.1411386,
            36.9090955
          ],
          [
            127.141203,
            36.9089675
          ],
          [
            127.1412581,
            36.9088758
          ],
          [
            127.1417369,
            36.9089866
          ],
          [
            127.1419088,
            36.9090906
          ]
        ]
      }
    },
    {
      "type": "Feature",
      "properties": {
        "osm_way_id": 1222166376,
        "highway": "path"
      },
      "geometry": {
        "type": "LineString",
        "coordinates": [
          [
            127.1462061,
            36.907633
          ],
          [
            127.1461755,
            36.9077504
          ],
          [
            127.146154,
            36.9078415
          ],
          [
            127.1461728,
            36.9079455
          ],
          [
            127.1461393,
            36.9080238
          ],
          [
            127.1461178,
            36.9080742
          ]
        ]
      }
    },
    {
      "type": "Feature",
      "properties": {
        "osm_way_id": 1222166387,
        "highway": "path"
      },
      "geometry": {
        "type": "LineString",
        "coordinates": [
          [
            127.1467645,
            36.9043598
          ],
          [
            127.1467684,
            36.9045218
          ],
          [
            127.1468004,
            36.9047765
          ],
          [
            127.1468415,
            36.9048977
          ],
          [
            127.1468734,
            36.9049712
          ],
          [
            127.14691,
            36.9049906
          ],
          [
            127.1469437,
            36.9050016
          ],
          [
            127.1469853,
            36.9050239
          ],
          [
            127.1470263,
            36.9050383
          ],
          [
            127.1473299,
            36.9052035
          ],
          [
            127.1473898,
            36.9052399
          ],
          [
            127.1475032,
            36.9053254
          ],
          [
            127.1475314,
            36.9053393
          ],
          [
            127.1477419,
            36.9054797
          ],
          [
            127.1477542,
            36.9055021
          ],
          [
            127.1477529,
            36.9055368
          ],
          [
            127.1477568,
            36.9055574
          ],
          [
            127.1477433,
            36.9055762
          ],
          [
            127.1477242,
            36.905658
          ],
          [
            127.1477393,
            36.9057227
          ],
          [
            127.147737,
            36.9057578
          ],
          [
            127.1477535,
            36.905789
          ],
          [
            127.1477396,
            36.9058319
          ],
          [
            127.1477433,
            36.9058831
          ],
          [
            127.1478246,
            36.9060407
          ],
          [
            127.1478332,
            36.9060827
          ],
          [
            127.1478629,
            36.9061518
          ],
          [
            127.1478556,
            36.906193
          ],
          [
            127.1478365,
            36.9062092
          ],
          [
            127.1478236,
            36.9062528
          ],
          [
            127.1477995,
            36.9062823
          ],
          [
            127.1477883,
            36.906309
          ],
          [
            127.1477777,
            36.9063848
          ],
          [
            127.1477838,
            36.9064593
          ],
          [
            127.1477637,
            36.9064841
          ],
          [
            127.1477262,
            36.9065098
          ],
          [
            127.147614,
            36.9066499
          ],
          [
            127.1475592,
            36.9067364
          ],
          [
            127.1475413,
            36.9067944
          ],
          [
            127.147514,
            36.9068603
          ],
          [
            127.1474769,
            36.9069219
          ],
          [
            127.1474623,
            36.9069985
          ],
          [
            127.1474755,
            36.9070783
          ],
          [
            127.1474319,
            36.9072281
          ],
          [
            127.1474134,
            36.9073249
          ],
          [
            127.1473793,
            36.9073797
          ],
          [
            127.1473195,
            36.9074616
          ],
          [
            127.1472413,
            36.9075333
          ],
          [
            127.1471861,
            36.907567
          ],
          [
            127.1471346,
            36.907555
          ],
          [
            127.147095,
            36.9075253
          ],
          [
            127.1470926,
            36.9074739
          ],
          [
            127.147057,
            36.9074552
          ],
          [
            127.1469004,
            36.9074568
          ],
          [
            127.1468293,
            36.9074498
          ],
          [
            127.1467795,
            36.9074536
          ],
          [
            127.1467446,
            36.907439
          ],
          [
            127.1466437,
            36.9074598
          ],
          [
            127.1465075,
            36.9075185
          ],
          [
            127.1464635,
            36.9075262
          ],
          [
            127.1464095,
            36.9075736
          ],
          [
            127.1462061,
            36.907633
          ]
        ]
      }
    },
    {
      "type": "Feature",
      "properties": {
        "osm_way_id": 1222166388,
        "highway": "path"
      },
      "geometry": {
        "type": "LineString",
        "coordinates": [
          [
            127.1462061,
            36.907633
          ],
          [
            127.1461412,
            36.9075947
          ],
          [
            127.1460824,
            36.9075336
          ],
          [
            127.1460877,
            36.9074819
          ],
          [
            127.1462191,
            36.9072979
          ],
          [
            127.1462001,
            36.9071716
          ],
          [
            127.1462119,
            36.9071434
          ],
          [
            127.1462825,
            36.9070212
          ],
          [
            127.1463649,
            36.9069648
          ],
          [
            127.1465179,
            36.906758
          ],
          [
            127.1465137,
            36.9066824
          ],
          [
            127.1464885,
            36.9066358
          ],
          [
            127.1464532,
            36.9065324
          ],
          [
            127.146359,
            36.9064713
          ],
          [
            127.1462295,
            36.906335
          ],
          [
            127.146206,
            36.9062315
          ],
          [
            127.1461295,
            36.9060341
          ],
          [
            127.1460235,
            36.9059354
          ],
          [
            127.1459706,
            36.9058132
          ],
          [
            127.1458764,
            36.9057286
          ],
          [
            127.1457889,
            36.9055379
          ],
          [
            127.1457588,
            36.9054296
          ],
          [
            127.1458014,
            36.9053572
          ],
          [
            127.1458882,
            36.9052398
          ],
          [
            127.1458923,
            36.9051794
          ],
          [
            127.1458645,
            36.9051237
          ],
          [
            127.1457517,
            36.9049837
          ],
          [
            127.1457305,
            36.9048945
          ],
          [
            127.1457274,
            36.9048125
          ],
          [
            127.1457705,
            36.9046804
          ],
          [
            127.145771,
            36.9045933
          ],
          [
            127.1457175,
            36.9045394
          ],
          [
            127.145584,
            36.904496
          ]
        ]
      }
    },
    {
      "type": "Feature",
      "properties": {
        "osm_way_id": 1373388270,
        "highway": "service"
      },
      "geometry": {
        "type": "LineString",
        "coordinates": [
          [
            127.1430412,
            36.9129066
          ],
          [
            127.1429011,
            36.9125871
          ],
          [
            127.1430055,
            36.912297
          ],
          [
            127.1432302,
            36.9120579
          ],
          [
            127.1436537,
            36.9118249
          ]
        ]
      }
    },
    {
      "type": "Feature",
      "properties": {
        "osm_way_id": 1555149122,
        "highway": "service",
        "service": "parking_aisle"
      },
      "geometry": {
        "type": "LineString",
        "coordinates": [
          [
            127.1465998,
            36.9090563
          ],
          [
            127.1476295,
            36.9092282
          ]
        ]
      }
    },
    {
      "type": "Feature",
      "properties": {
        "osm_way_id": 1555150578,
        "highway": "service"
      },
      "geometry": {
        "type": "LineString",
        "coordinates": [
          [
            127.1426387,
            36.9097045
          ],
          [
            127.1427622,
            36.9097176
          ]
        ]
      }
    },
    {
      "type": "Feature",
      "properties": {
        "osm_way_id": 1562766389,
        "highway": "service",
        "lanes": "1",
        "surface": "concrete"
      },
      "geometry": {
        "type": "LineString",
        "coordinates": [
          [
            127.1454805,
            36.9114755
          ],
          [
            127.1460387,
            36.9117083
          ],
          [
            127.1469335,
            36.9120415
          ],
          [
            127.1469797,
            36.9120587
          ],
          [
            127.1472135,
            36.9121458
          ],
          [
            127.1485278,
            36.9125404
          ],
          [
            127.1486539,
            36.9126219
          ],
          [
            127.1486244,
            36.9127356
          ],
          [
            127.1484098,
            36.9131816
          ],
          [
            127.1481281,
            36.9133854
          ],
          [
            127.1480691,
            36.913484
          ],
          [
            127.1477848,
            36.9136706
          ],
          [
            127.1477115,
            36.913779
          ],
          [
            127.1476494,
            36.9138657
          ],
          [
            127.1476346,
            36.914063
          ]
        ]
      }
    }
  ]
}